[{"OBJECT_NAME":"STARLINK-5811","OBJECT_ID":"2023-028AY","EPOCH":"2026-03-09T18:15:42.789888","MEAN_MOTION":14.98326371,"ECCENTRICITY":0.00030614,"INCLINATION":70.0008,"RA_OF_ASC_NODE":204.4047,"ARG_OF_PERICENTER":265.1387,"MEAN_ANOMALY":94.9423,"EPHEMERIS_TYPE":0,"CLASSIFICATION_TYPE":"U","NORAD_CAT_ID":55787,"ELEMENT_SET_NO":999,"REV_AT_EPOCH":16703,"BSTAR":-2.524832e-6,"MEAN_MOTION_DOT":-1.23e-6,"MEAN_MOTION_DDOT":0},{"OBJECT_NAME":"SITRO-AIS 22","OBJECT_ID":"2024-199F","EPOCH":"2026-03-09T22:54:34.366752","MEAN_MOTION":14.95387083,"ECCENTRICITY":0.00134988,"INCLINATION":97.3323,"RA_OF_ASC_NODE":273.3747,"ARG_OF_PERICENTER":41.8157,"MEAN_ANOMALY":318.4094,"EPHEMERIS_TYPE":0,"CLASSIFICATION_TYPE":"U","NORAD_CAT_ID":61740,"ELEMENT_SET_NO":999,"REV_AT_EPOCH":11708,"BSTAR":0.00031759382,"MEAN_MOTION_DOT":3.46e-5,"MEAN_MOTION_DDOT":0}]
